Satellite: FREGAT-I
Catalog number: 35867
Epoch time:      09302.58823812
Element set:      52
Inclination:      097.3674 deg
RA of node:       351.8742 deg
Eccentricity:    0.0011213
Arg of perigee:   135.7595 deg
Mean anomaly:     224.4467 deg
Mean motion:   15.22744716 rev/day
Decay rate:      2.267e-05 rev/day^2
Epoch rev:             637
Checksum:              306

/EX




From r.hoad at att.net  Thu Oct 29 18:54:34 2009
From: r.hoad at att.net (Ray Hoad)
Date: Thu, 29 Oct 2009 20:54:34 -0500
Subject: [keps]  orb09302.2l.amsat
Message-ID: <4AEA475A.7090000@att.net>

SB KEPS @ AMSAT  $ORB09302.N
2Line Orbital Elements 09302.AMSAT

HR AMSAT ORBITAL ELEMENTS FOR AMATEUR SATELLITES IN NASA FORMAT
FROM WA5QGD FORT WORTH,TX October 29, 2009
Send Subscribe/unsubscribe to KEPS at 
http://www.amsat.org/mailman/listinfo/keps
BID: ORB09302.N

DECODE 2-LINE ELSETS WITH THE FOLLOWING KEY:
1 AAAAAU 00  0  0 BBBBB.BBBBBBBB  .CCCCCCCC  00000-0  00000-0 0  DDDZ
2 AAAAA EEE.EEEE FFF.FFFF GGGGGGG HHH.HHHH III.IIII JJ.JJJJJJJJKKKKKZ
KEY: A-CATALOGNUM B-EPOCHTIME C-DECAY D-ELSETNUM E-INCLINATION F-RAAN
G-ECCENTRICITY H-ARGPERIGEE I-MNANOM J-MNMOTION K-ORBITNUM Z-CHECKSUM

TO ALL RADIO AMATEURS BT

AO-07
1 07530U 74089B   09302.64229741 -.00000027  00000-0  10000-3 0  6162
2 07530 101.4189 322.3442 0012054 006.1501 353.9709 12.53576849599566
FO-29
1 24278U 96046B   09302.66986538 -.00000050  00000-0 -14640-4 0  1654
2 24278 098.5294 158.4898 0351069 001.9089 358.3300 13.52945688651933
SO-33
1 25509U 98061B   09302.60674044  .00000162  00000-0  22027-4 0  5745
2 25509 031.4318 012.3932 0354225 073.7945 290.1350 14.28270079575062
RS-22
1 27939U 03042A   09301.67237653  .00000112  00000-0  30421-4 0  9247
2 27939 097.9203 171.5256 0014701 071.9210 288.3600 14.63351167325095
VO-52
1 28650U 05017B   09302.57984985 -.00000063  00000-0 -14213-5 0  3545
2 28650 097.7269 359.6003 0026198 312.4018 047.5009 14.81633544242545
SO-67
1 35870U 09049F   09302.87042381  .00000717  00000-0  33583-4 0  1254
2 35870 097.3668 352.1426 0012716 140.4319 339.3539 15.22830636  6418
AO-16
1 20439U 90005D   09301.46696279 -.00000005  00000-0  13429-4 0 07373
2 20439 098.2989 263.9296 0011622 131.5862 228.6321 14.31836934032225
LO-19
1 20442U 90005G   09302.55021658  .00000026  00000-0  24960-4 0  6497
2 20442 098.2612 271.7047 0012787 125.4008 234.8357 14.32071497 32549
AO-27
1 22825U 93061C   09301.64667430  .00000032  00000-0  29331-4 0  3741
2 22825 098.4553 250.9720 0007770 227.4395 132.6123 14.29276795838978
IO-26
1 22826U 93061D   09302.73322228  .00000028  00000-0  27478-4 0  1064
2 22826 098.4471 252.7186 0008215 220.1135 139.9434 14.29530094839231
GO-32
1 25397U 98043D   09301.79502201  .00000105  00000-0  64435-4 0 00273
2 25397 098.3216 316.9459 0000862 174.5542 185.5636 14.23165890587135
NO-44
1 26931U 01043C   09302.68182321  .00000022  00000-0  41000-4 0  3003
2 26931 067.0521 077.8433 0006862 272.9861 087.0461 14.29570988421807
SO-50
1 27607U 02058C   09301.60052565 -.00000033  00000-0  16688-4 0   192
2 27607 064.5596 339.8965 0051635 171.2685 188.9325 14.71469333368309
CO-55
1 27844U 03031E   09302.58372366  .00000037  00000-0  37632-4 0  6998
2 27844 098.7133 309.8623 0010507 113.3393 246.8885 14.20663032328343
CO-57
1 27848U 03031J   09302.50968831  .00000022  00000-0  30443-4 0  6517
2 27848 098.7175 308.8555 0010597 118.7345 241.4903 14.20461822328290
AO-51
1 28375U 04025K   09301.52415660  .00000013  00000-0  16147-4 0 05205
2 28375 098.0541 303.3770 0084960 080.0954 280.9814 14.40656400280158
CO-56
1 28941U 06005C   09297.68475575  .14491492  29743-5  25760-3 0  5565
2 28941 098.0955 138.9518 0011688 319.8691 040.7485 16.46998778207909
GENESAT1
1 29655U 06058C   09301.75515220  .00026042  00000-0  22136-3 0  8457
2 29655 040.0221 064.6511 0003119 048.1585 311.9497 15.68907686163433
CP3
1 31129U 07012N   09302.60368458  .00000114  00000-0  37166-4 0  2929
2 31129 097.9712 349.1318 0101482 228.6334 130.6116 14.52173446134391
CO-65
1 32785U 08021C   09302.73183013  .00000062  00000-0  14765-4 0  5100
2 32785 097.9303 005.4744 0014410 317.8772 042.1329 14.81533120 81364
KKS-1
1 33493U 09002B   09302.77776196  .00000510  00000-0  73046-4 0  8929
2 33493 098.0676 055.6632 0020386 163.3205 196.8683 14.80760329 41383
SOHLA-1
1 33496U 09002E   09302.80396652  .00000045  00000-0  15838-4 0  8570
2 33496 098.0473 050.0803 0005797 207.1257 152.9644 14.69452192 41049
NOAA-10
1 16969U 86073A   09302.53426137  .00000029  00000-0  29735-4 0  8136
2 16969 098.6822 328.3899 0012414 161.7115 198.4531 14.27397583202671
NOAA-11
1 19531U 88089A   09302.28469240  .00000096  00000-0  72003-4 0  8306
2 19531 098.7805 030.1428 0012299 085.8667 274.3889 14.14906436 88486
NOAA-12
1 21263U 91032A   09302.79441464  .00000010  00000-0  23060-4 0  3161
2 21263 098.7732 310.9310 0013199 113.2196 247.0374 14.25598401959576
MET-3/5
1 21655U 91056A   09301.93073638  .00000051  00000-0  10000-3 0 07271
2 21655 082.5499 112.0290 0012838 203.5893 156.4641 13.17020991875230
MET-2/21
1 22782U 93055A   09301.88765308  .00000047  00000-0  28838-4 0 06048
2 22782 082.5454 075.9468 0021856 335.4551 024.5569 13.83639545816090
OKEAN-4
1 23317U 94066A   09301.85578878  .00000237  00000-0  26389-4 0   579
2 23317 082.5411 209.7405 0020662 286.4898 073.4052 14.82732445812177
NOAA-14
1 23455U 94089A   09302.56744701  .00000035  00000-0  42194-4 0  8088
2 23455 098.8986 019.7041 0009810 165.2076 194.9402 14.13771402764912
NOAA-15
1 25338U 98030A   09302.53608481 -.00000102  00000-0 -25353-4 0  1348
2 25338 098.5978 288.8892 0011095 031.4440 328.7390 14.24789292595904
RESURS
1 25394U 98043A   09302.69972124 -.00000046  00000-0 -21090-5 0  3444
2 25394 098.3300 328.1295 0001385 140.1730 219.9551 14.24188922587543
FENGYUN1
1 25730U 99025A   09302.80699483  .00001005  00000-0  61482-3 0  8868
2 25730 098.7657 269.0080 0020840 192.8751 167.1890 14.08036851539266
OKEAN-0
1 25860U 99039A   09302.75514565  .00000083  00000-0  20044-4 0  8223
2 25860 097.8040 278.7104 0001740 082.6231 277.5175 14.73594516552960
NOAA-16
1 26536U 00055A   09302.59369444 -.00000082  00000-0 -18934-4 0  6145
2 26536 099.1795 309.5381 0009728 263.0677 096.9397 14.12535158469276
NOAA-17
1 27453U 02032A   09302.54942749  .00000177  00000-0  95260-4 0  6062
2 27453 098.4672 356.8771 0012790 092.5491 267.7167 14.24102766381871
NOAA-18
1 28654U 05018A   09302.60966912  .00000434  00000-0  26439-3 0   946
2 28654 098.9203 244.8826 0014229 347.3387 012.7410 14.11299286228915
NOAA-19
1 33591U 09005A   09302.54767637  .00000330  00000-0  20727-3 0  2994
2 33591 098.7601 244.8931 0013454 220.2063 139.8109 14.10997265 37383
HUBBLE
1 20580U 90037B   09300.38005163  .00000510  00000-0  26349-4 0  4687
2 20580 028.4706 319.5105 0003535 245.4323 114.6084 15.00845672869732
ISS
1 25544U 98067A   09303.02141007  .00024258  00000-0  15893-3 0  8809
2 25544 051.6441 334.3471 0006265 264.9592 189.0978 15.75618079627190
CO-58
1 28895U 05043F   09302.68397804  .00000058  00000-0  21627-4 0  4296
2 28895 098.0390 189.3888 0016958 288.2346 071.7024 14.59808008213358
FALCON
1 30776U 07006E   09301.52606936  .00000810  00000-0  61509-4 0 07011
2 30776 035.4341 010.3659 0002151 349.4098 010.6573 15.03347380145179
MAST
1 31126U 07012K   09302.54719563 -.00000001  00000-0  10378-4 0  7181
2 31126 097.9727 351.0820 0093998 222.3412 137.0506 14.53525534134556
CAPE1
1 31130U 07012P   09301.68475686  .00000007  00000-0  12545-4 0  7290
2 31130 097.9741 348.1513 0101768 231.6114 127.5891 14.52097964134067
COMPASS
1 32787U 08021E   09301.21083674  .00000522  00000-0  72970-4 0 05053
2 32787 097.9274 003.8051 0015128 323.6532 036.3646 14.81680089081142
AAUSAT2
1 32788U 08021F   09301.70775043  .00000210  00000-0  33319-4 0 04996
2 32788 097.9291 004.3814 0014668 323.8046 036.2170 14.81806598081220
DO-64
1 32789U 08021G   09301.72900771  .00000413  00000-0  58947-4 0 05177
2 32789 097.9327 004.6530 0015100 321.0501 038.9617 14.81831026081226
CO-66
1 32791U 08021J   09302.75530484  .00000488  00000-0  69006-4 0  4948
2 32791 097.9295 005.3652 0015557 316.6459 043.3524 14.81499947 81335
RS-30
1 32953U 08025A   09302.60732950  .00000010  00000-0  00000 0 0  4404
2 32953 082.5039 173.0457 0018087 246.4027 113.5157 12.43003250 65090
TACSAT-3
1 35001U 09028A   09301.94262443  .00004149  00000-0  10848-3 0 01416
2 35001 040.4547 160.4990 0022564 073.6527 286.6760 15.39430178024960
PHARMSAT
1 35002U 09028B   09302.77045651  .00003889  00000-0  99425-4 0  1261
2 35002 040.4679 154.6024 0025643 084.9575 275.4165 15.40169408 25096
HAWKSAT1
1 35003U 09028C   09302.70584545  .00007153  00000-0  17233-3 0  1337
2 35003 040.4601 153.9756 0025274 088.7292 271.6361 15.41116316 25103
CP6
1 35004U 09028D   09301.01761656  .00009239  00000-0  22009-3 0 01289
2 35004 040.4592 164.0654 0025269 073.8562 286.5030 15.41216964024839
AEROCUB3
1 35005U 09028E   09301.94524888  .00008367  00000-0  20152-3 0 01318
2 35005 040.4745 158.9660 0024501 080.0053 280.3498 15.40996674024979
DRAGNSAT
1 35690U 09038B   09302.52466149  .00047279  00000-0  19486-3 0   883
2 35690 051.6418 331.1149 0006132 057.9384 302.2219 15.85404673 14412
POLLUX
1 35693U 09038E   09302.56192016  .00042693  00000-0  18445-3 0   912
2 35693 051.6411 331.3748 0005113 023.9182 336.1939 15.84474357 14388
CASTOR
1 35694U 09038F   09301.92262822  .00021513  00000-0  10521-3 0 00864
2 35694 051.6431 335.3803 0004745 021.4335 338.6862 15.82239583014278
METEOR-M
1 35865U 09049A   09301.82245358  .00000176  00000-0  10000-3 0   404
2 35865 098.7936 351.8743 0001958 334.6312 025.4730 14.21827271  5840
STERKH-2
1 35866U 09049B   09301.80888730  .00000178  00000-0  10000-3 0   424
2 35866 098.7947 351.8992 0002698 326.0971 034.0033 14.22298067  5845
FREGAT-I
1 35867U 09049C   09302.58823812  .00002267  00000-0  10000-3 0   523
2 35867 097.3674 351.8742 0011213 135.7595 224.4467 15.22744716  6374
/EX





From r.hoad at att.net  Thu Nov  5 18:33:00 2009
From: r.hoad at att.net (Ray Hoad)
Date: Thu, 05 Nov 2009 20:33:00 -0600
Subject: [keps]  orb09309.amsat
Message-ID: <4AF38ADC.4050404@att.net>

SB KEPS @ AMSAT  $ORB09309.O
Orbital Elements  09309.OSCAR

HR AMSAT ORBITAL ELEMENTS FOR OSCAR SATELLITES
FROM WA5QGD FORT WORTH,TX November 5, 2009
Send Subscribe/unsubscribe to KEPS at 
http://www.amsat.org/mailman/listinfo/keps
BID: ORB09309.O
TO ALL RADIO AMATEURS BT

